1 08820U 76039A   03018.88125631  .00000003  00000-0  10000-3 0  9266
2 08820 109.8345 130.4742 0044293 333.2590  26.5761  6.38664736367527
